NORAD_CAT_ID,OBJECT_NAME,OBJECT_TYPE,EPOCH,MEAN_MOTION,ECCENTRICITY,INCLINATION,RA_OF_ASC_NODE,ARG_OF_PERICENTER,MEAN_ANOMALY,BSTAR,MEAN_MOTION_DOT,MEAN_MOTION_DDOT,TLE_LINE0,TLE_LINE1,TLE_LINE2,SEMIMAJOR_AXIS,PERIOD,APOGEE,PERIGEE,DECAYED
53980.0,STARLINK-5133,PAYLOAD,2023-10-19 03:47:40,15.0886308,0.0001347,53.2156,175.7878,100.2658,259.8486,0.00069476,0.00010793,0.0,0 STARLINK-5133,1 53980U 22125S   23292.15810467  .00010793  00000-0  69476-3 0  9992,2 53980  53.2156 175.7878 0001347 100.2658 259.8486 15.08863080 57743,6917.81,95.436,540.607,538.743,0.0
53980.0,STARLINK-5133,PAYLOAD,2023-10-19 22:52:17,15.08851301,0.0001546,53.2165,172.2173,91.3172,268.7998,0.00028907,4.317e-05,0.0,0 STARLINK-5133,1 53980U 22125S   23292.95298559  .00004317  00000-0  28907-3 0  9991,2 53980  53.2165 172.2173 0001546  91.3172 268.7998 15.08851301 57790,6917.846,95.437,540.78,538.641,0.0
53980.0,STARLINK-5133,PAYLOAD,2023-10-20 16:21:33,15.08834289,0.0001267,53.2157,168.9478,105.0114,255.1018,-5.991e-05,-1.241e-05,0.0,0 STARLINK-5133,1 53980U 22125S   23293.68163335 -.00001241  00000-0 -59910-4 0  9999,2 53980  53.2157 168.9478 0001267 105.0114 255.1018 15.08834289 57979,6917.898,95.438,540.639,538.886,0.0
53980.0,STARLINK-5133,PAYLOAD,2023-10-20 21:07:42,15.08833945,0.0001459,53.2157,168.0575,100.8121,259.3036,-3.5535e-05,-8.53e-06,0.0,0 STARLINK-5133,1 53980U 22125S   23293.88035790 -.00000853  00000-0 -35535-4 0  9999,2 53980  53.2157 168.0575 0001459 100.8121 259.3036 15.08833945 57932,6917.899,95.438,540.773,538.755,0.0
53980.0,STARLINK-5133,PAYLOAD,2023-10-21 08:15:24,15.08838768,0.0001296,53.2157,165.9752,110.1349,249.9783,0.00011232,1.5e-05,0.0,0 STARLINK-5133,1 53980U 22125S   23294.34403292  .00001500  00000-0  11232-3 0  9992,2 53980  53.2157 165.9752 0001296 110.1349 249.9783 15.08838768 58001,6917.884,95.438,540.646,538.853,0.0
53980.0,STARLINK-5133,PAYLOAD,2023-10-21 22:33:52,15.08853031,0.0001203,53.2145,163.2991,106.1294,253.983,0.00069733,0.00010831,0.0,0 STARLINK-5133,1 53980U 22125S   23294.94019232  .00010831  00000-0  69733-3 0  9991,2 53980  53.2145 163.2991 0001203 106.1294 253.9830 15.08853031 58093,6917.841,95.437,540.538,538.873,0.0
53980.0,STARLINK-5133,PAYLOAD,2023-10-22 08:06:11,15.08851127,0.0001024,53.2155,161.5129,85.4859,274.625,0.00041837,6.379e-05,0.0,0 STARLINK-5133,1 53980U 22125S   23295.33763066  .00006379  00000-0  41837-3 0  9993,2 53980  53.2155 161.5129 0001024  85.4859 274.6250 15.08851127 58152,6917.846,95.437,540.42,539.003,0.0
53980.0,STARLINK-5133,PAYLOAD,2023-10-22 19:13:53,15.08826948,0.0001049,53.2146,159.4334,96.027,264.0842,-0.00029673,-5.005e-05,0.0,0 STARLINK-5133,1 53980U 22125S   23295.80131841 -.00005005  00000-0 -29673-3 0  9996,2 53980  53.2146 159.4334 0001049  96.0270 264.0842 15.08826948 58296,6917.92,95.438,540.511,539.06,0.0
53980.0,STARLINK-5133,PAYLOAD,2023-10-22 22:24:40,15.08831593,0.0001198,53.2148,158.8388,91.6048,268.5081,9.9752e-05,1.3e-05,0.0,0 STARLINK-5133,1 53980U 22125S   23295.93379847  .00001300  00000-0  99752-4 0  9998,2 53980  53.2148 158.8388 0001198  91.6048 268.5081 15.08831593 58240,6917.906,95.438,540.6,538.942,0.0
53980.0,STARLINK-5133,PAYLOAD,2023-10-23 07:56:59,15.08834634,0.0001216,53.215,157.0545,92.6703,267.4428,0.00077268,0.00012029,0.0,0 STARLINK-5133,1 53980U 22125S   23296.33124251  .00012029  00000-0  77268-3 0  9997,2 53980  53.2150 157.0545 0001216  92.6703 267.4428 15.08834634 58375,6917.897,95.438,540.603,538.921,0.0
53980.0,STARLINK-5133,PAYLOAD,2023-10-23 22:15:27,15.08852041,0.0001193,53.2148,154.3778,89.7297,270.3832,0.0010021,0.00015702,0.0,0 STARLINK-5133,1 53980U 22125S   23296.92740168  .00015702  00000-0  10021-2 0  9997,2 53980  53.2148 154.3778 0001193  89.7297 270.3832 15.08852041 58395,6917.844,95.437,540.534,538.883,0.0
53980.0,STARLINK-5133,PAYLOAD,2023-10-24 04:37:00,15.08838917,0.000118,53.2149,153.1882,94.2597,265.853,0.00014411,2.006e-05,0.0,0 STARLINK-5133,1 53980U 22125S   23297.19236239  .00002006  00000-0  14411-3 0  9997,2 53980  53.2149 153.1882 0001180  94.2597 265.8530 15.08838917 58502,6917.884,95.438,540.565,538.932,0.0
53980.0,STARLINK-5133,PAYLOAD,2023-10-24 14:09:18,15.08844815,0.0001163,53.2146,151.4042,85.9605,274.152,0.00034769,5.251e-05,0.0,0 STARLINK-5133,1 53980U 22125S   23297.58980227  .00005251  00000-0  34769-3 0  9996,2 53980  53.2146 151.4042 0001163  85.9605 274.1520 15.08844815 58490,6917.866,95.437,540.535,538.926,0.0
53980.0,STARLINK-5133,PAYLOAD,2023-10-25 14:00:05,15.08846022,0.0001322,53.2145,146.9439,78.834,281.2801,0.00032558,4.898e-05,0.0,0 STARLINK-5133,1 53980U 22125S   23298.58339979  .00004898  00000-0  32558-3 0  9999,2 53980  53.2145 146.9439 0001322  78.8340 281.2801 15.08846022 58710,6917.862,95.437,540.642,538.812,0.0
53980.0,STARLINK-5133,PAYLOAD,2023-10-26 12:15:29,15.08850617,0.0001985,53.2152,142.7807,65.1374,294.9824,0.0003046,4.564e-05,0.0,0 STARLINK-5133,1 53980U 22125S   23299.51075797  .00004564  00000-0  30460-3 0  9998,2 53980  53.2152 142.7807 0001985  65.1374 294.9824 15.08850617 58780,6917.848,95.437,541.086,538.34,0.0
53980.0,STARLINK-5133,PAYLOAD,2023-10-26 18:37:02,15.08842568,0.0001175,53.215,141.5905,84.6532,275.4594,0.00011068,1.474e-05,0.0,0 STARLINK-5133,1 53980U 22125S   23299.77571900  .00001474  00000-0  11068-3 0  9993,2 53980  53.2150 141.5905 0001175  84.6532 275.4594 15.08842568 58893,6917.873,95.437,540.55,538.925,0.0
53980.0,STARLINK-5133,PAYLOAD,2023-10-26 21:47:48,15.08846136,0.0001267,53.2149,140.9957,87.0794,273.0343,0.00011211,1.497e-05,0.0,0 STARLINK-5133,1 53980U 22125S   23299.90819666  .00001497  00000-0  11211-3 0  9997,2 53980  53.2149 140.9957 0001267  87.0794 273.0343 15.08846136 58846,6917.862,95.437,540.603,538.85,0.0
53980.0,STARLINK-5133,PAYLOAD,2023-10-27 13:41:39,15.08840704,0.0001245,53.2149,138.0224,86.7353,273.3781,5.0422e-05,5.15e-06,0.0,0 STARLINK-5133,1 53980U 22125S   23300.57059831  .00000515  00000-0  50422-4 0  9991,2 53980  53.2149 138.0224 0001245  86.7353 273.3781 15.08840704 58949,6917.878,95.438,540.605,538.882,0.0
53980.0,STARLINK-5133,PAYLOAD,2023-10-27 20:03:11,15.08846717,0.0001316,53.2149,136.8321,89.9405,270.1738,0.0001072,1.419e-05,0.0,0 STARLINK-5133,1 53980U 22125S   23300.83555473  .00001419  00000-0  10720-3 0  9993,2 53980  53.2149 136.8321 0001316  89.9405 270.1738 15.08846717 59055,6917.86,95.437,540.635,538.814,0.0
53980.0,STARLINK-5133,PAYLOAD,2023-10-28 11:57:03,15.08835025,0.0001428,53.2147,133.8583,91.5764,268.5391,3.3177e-05,2.4e-06,0.0,0 STARLINK-5133,1 53980U 22125S   23301.49796115  .00000240  00000-0  33177-4 0  9999,2 53980  53.2147 133.8583 0001428  91.5764 268.5391 15.08835025 59080,6917.896,95.438,540.748,538.773,0.0
53980.0,STARLINK-5133,PAYLOAD,2023-10-28 19:53:59,15.08839453,0.000124,53.2156,132.3721,91.5287,268.5847,8.1667e-05,1.012e-05,0.0,0 STARLINK-5133,1 53980U 22125S   23301.82916032  .00001012  00000-0  81667-4 0  9993,2 53980  53.2156 132.3721 0001240  91.5287 268.5847 15.08839453 59209,6917.882,95.438,540.605,538.889,0.0
53980.0,STARLINK-5133,PAYLOAD,2023-10-29 05:26:18,15.08842042,0.0001294,53.2145,130.5875,91.4667,268.6473,0.00011282,1.508e-05,0.0,0 STARLINK-5133,1 53980U 22125S   23302.22659814  .00001508  00000-0  11282-3 0  9995,2 53980  53.2145 130.5875 0001294  91.4667 268.6473 15.08842042 59199,6917.874,95.437,540.634,538.844,0.0
53980.0,STARLINK-5133,PAYLOAD,2023-10-29 19:44:46,15.08846391,0.0001229,53.2145,127.9105,91.5805,268.5328,0.0001344,1.852e-05,0.0,0 STARLINK-5133,1 53980U 22125S   23302.82275550  .00001852  00000-0  13440-3 0  9992,2 53980  53.2145 127.9105 0001229  91.5805 268.5328 15.08846391 59287,6917.861,95.437,540.576,538.876,0.0
53980.0,STARLINK-5133,PAYLOAD,2023-10-30 11:38:37,15.08837466,0.0001695,53.2142,124.9377,91.7854,268.3332,9.1691e-05,1.171e-05,0.0,0 STARLINK-5133,1 53980U 22125S   23303.48516180  .00001171  00000-0  91691-4 0  9991,2 53980  53.2142 124.9377 0001695  91.7854 268.3332 15.08837466 59450,6917.888,95.438,540.926,538.581,0.0
53980.0,STARLINK-5133,PAYLOAD,2023-10-30 16:24:47,15.08831187,0.0001377,53.2154,124.0461,89.8436,270.2713,-1.6015e-05,-5.43e-06,0.0,0 STARLINK-5133,1 53980U 22125S   23303.68388464 -.00000543  00000-0 -16015-4 0  9996,2 53980  53.2154 124.0461 0001377  89.8436 270.2713 15.08831187 59414,6917.907,95.438,540.725,538.82,0.0
53980.0,STARLINK-5133,PAYLOAD,2023-10-31 05:07:52,15.08838225,0.0001296,53.2152,121.6668,90.4346,269.6795,5.2542e-05,5.48e-06,0.0,0 STARLINK-5133,1 53980U 22125S   23304.21380235  .00000548  00000-0  52542-4 0  9992,2 53980  53.2152 121.6668 0001296  90.4346 269.6795 15.08838225 59560,6917.886,95.438,540.647,538.854,0.0
53980.0,STARLINK-5133,PAYLOAD,2023-10-31 19:26:20,15.08845676,0.0001274,53.2153,118.9903,88.5719,271.5419,0.00013981,1.938e-05,0.0,0 STARLINK-5133,1 53980U 22125S   23304.80995954  .00001938  00000-0  13981-3 0  9994,2 53980  53.2153 118.9903 0001274  88.5719 271.5419 15.08845676 59585,6917.863,95.437,540.609,538.847,0.0
53980.0,STARLINK-5133,PAYLOAD,2023-11-01 04:58:39,15.08842674,0.0001288,53.2154,117.2061,87.7313,272.3827,9.3686e-05,1.204e-05,0.0,0 STARLINK-5133,1 53980U 22125S   23305.20740158  .00001204  00000-0  93686-4 0  9990,2 53980  53.2154 117.2061 0001288  87.7313 272.3827 15.08842674 59643,6917.872,95.437,540.628,538.846,0.0
53980.0,STARLINK-5133,PAYLOAD,2023-11-01 17:41:45,15.08834322,0.000125,53.2149,114.8271,87.9289,272.1847,0.00010416,1.37e-05,0.0,0 STARLINK-5133,1 53980U 22125S   23305.73732769  .00001370  00000-0  10416-3 0  9990,2 53980  53.2149 114.8271 0001250  87.9289 272.1847 15.08834322 59793,6917.898,95.438,540.627,538.898,0.0
53980.0,STARLINK-5133,PAYLOAD,2023-11-02 11:10:59,15.08842245,0.0001309,53.2146,111.5557,88.5565,271.5577,0.00014148,1.965e-05,0.0,0 STARLINK-5133,1 53980U 22125S   23306.46596491  .00001965  00000-0  14148-3 0  9997,2 53980  53.2146 111.5557 0001309  88.5565 271.5577 15.08842245 59831,6917.874,95.437,540.644,538.833,0.0
